{"timestamp": "2025-03-02T19:01:21.608120", "data": [ {"OBJECT_NAME": "IRNSS-1A", "OBJECT_ID": "2013-034A", "EPOCH": "2025-02-23T03:00:30.381696", "MEAN_MOTION": 1.0027917, "ECCENTRICITY": 0.0019007, "INCLINATION": 34.6467, "RA_OF_ASC_NODE": 70.7762, "ARG_OF_PERICENTER": 191.0246, "MEAN_ANOMALY": 351.7701, "EPHEMERIS_TYPE": 0, "CLASSIFICATION_TYPE": "U", "NORAD_CAT_ID": 39199, "ELEMENT_SET_NO": 999, "REV_AT_EPOCH": 4256, "BSTAR": 0, "MEAN_MOTION_DOT": 8.3e-07, "MEAN_MOTION_DDOT": 0, "line1": "1 39199U 13034A   25054.12535164  .00000083  00000+0  00000+0 0  9994", "line2": "2 39199  34.6467  70.7762 0019007 191.0246 351.7701  1.00279170 42560"}, {"OBJECT_NAME": "GPS BIIF-5  (PRN 30)", "OBJECT_ID": "2014-008A", "EPOCH": "2025-03-01T12:43:05.680704", "MEAN_MOTION": 2.00556821, "ECCENTRICITY": 0.0076106, "INCLINATION": 53.608, "RA_OF_ASC_NODE": 168.5879, "ARG_OF_PERICENTER": 222.5548, "MEAN_ANOMALY": 136.8566, "EPHEMERIS_TYPE": 0, "CLASSIFICATION_TYPE": "U", "NORAD_CAT_ID": 39533, "ELEMENT_SET_NO": 999, "REV_AT_EPOCH": 8020, "BSTAR": 0, "MEAN_MOTION_DOT": 2.8e-07, "MEAN_MOTION_DDOT": 0, "line1": "1 39533U 14008A   25060.52992686  .00000028  00000+0  00000+0 0  9994", "line2": "2 39533  53.6080 168.5879 0076106 222.5548 136.8566  2.00556821 80203"}, {"OBJECT_NAME": "ASTRA 5B (EGNOS/PRN 123)", "OBJECT_ID": "2014-011B", "EPOCH": "2025-03-01T17:30:05.925600", "MEAN_MOTION": 1.00267731, "ECCENTRICITY": 0.0003812, "INCLINATION": 0.0596, "RA_OF_ASC_NODE": 318.171, "ARG_OF_PERICENTER": 1.5666, "MEAN_ANOMALY": 126.0457, "EPHEMERIS_TYPE": 0, "CLASSIFICATION_TYPE": "U", "NORAD_CAT_ID": 39617, "ELEMENT_SET_NO": 999, "REV_AT_EPOCH": 3993, "BSTAR": 0, "MEAN_MOTION_DOT": 1.34e-06, "MEAN_MOTION_DDOT": 0, "line1": "1 39617U 14011B   25060.72923525  .00000134  00000+0  00000+0 0  9997", "line2": "2 39617   0.0596 318.1710 0003812   1.5666 126.0457  1.00267731 39933"}, {"OBJECT_NAME": "COSMOS 2492 (754)", "OBJECT_ID": "2014-012A", "EPOCH": "2025-03-02T06:18:46.352736", "MEAN_MOTION": 2.13103075, "ECCENTRICITY": 0.0014004, "INCLINATION": 65.5571, "RA_OF_ASC_NODE": 329.9323, "ARG_OF_PERICENTER": 325.3651, "MEAN_ANOMALY": 34.5936, "EPHEMERIS_TYPE": 0, "CLASSIFICATION_TYPE": "U", "NORAD_CAT_ID": 39620, "ELEMENT_SET_NO": 999, "REV_AT_EPOCH": 8518, "BSTAR": 0, "MEAN_MOTION_DOT": -4.9e-07, "MEAN_MOTION_DDOT": 0, "line1": "1 39620U 14012A   25061.26303649 -.00000049  00000+0  00000+0 0  9997", "line2": "2 39620  65.5571 329.9323 0014004 325.3651  34.5936  2.13103075 85180"}, {"OBJECT_NAME": "IRNSS-1B", "OBJECT_ID": "2014-017A", "EPOCH": "2025-03-01T02:04:38.665632", "MEAN_MOTION": 1.002763, "ECCENTRICITY": 0.0020148, "INCLINATION": 28.926, "RA_OF_ASC_NODE": 248.4657, "ARG_OF_PERICENTER": 177.1452, "MEAN_ANOMALY": 179.828, "EPHEMERIS_TYPE": 0, "CLASSIFICATION_TYPE": "U", "NORAD_CAT_ID": 39635, "ELEMENT_SET_NO": 999, "REV_AT_EPOCH": 4004, "BSTAR": 0, "MEAN_MOTION_DOT": 1.13e-06, "MEAN_MOTION_DDOT": 0, "line1": "1 39635U 14017A   25060.08655863  .00000113  00000+0  00000+0 0  9996", "line2": "2 39635  28.9260 248.4657 0020148 177.1452 179.8280  1.00276300 40045"}, {"OBJECT_NAME": "LUCH 5V (SDCM/PRN 141)", "OBJECT_ID": "2014-023A", "EPOCH": "2025-03-02T02:24:57.456000", "MEAN_MOTION": 1.00267095, "ECCENTRICITY": 0.0003319, "INCLINATION": 3.95, "RA_OF_ASC_NODE": 74.1095, "ARG_OF_PERICENTER": 270.6352, "MEAN_ANOMALY": 306.2719, "EPHEMERIS_TYPE": 0, "CLASSIFICATION_TYPE": "U", "NORAD_CAT_ID": 39727, "ELEMENT_SET_NO": 999, "REV_AT_EPOCH": 55777, "BSTAR": 0, "MEAN_MOTION_DOT": -2.68e-06, "MEAN_MOTION_DDOT": 0, "line1": "1 39727U 14023A   25061.10066500 -.00000268  00000+0  00000+0 0  9995", "line2": "2 39727   3.9500  74.1095 0003319 270.6352 306.2719  1.00267095557773"}, {"OBJECT_NAME": "GPS BIIF-6  (PRN 06)", "OBJECT_ID": "2014-026A", "EPOCH": "2025-03-02T07:31:34.938048", "MEAN_MOTION": 2.00549972, "ECCENTRICITY": 0.0036166, "INCLINATION": 56.6735, "RA_OF_ASC_NODE": 349.8616, "ARG_OF_PERICENTER": 319.1557, "MEAN_ANOMALY": 40.5924, "EPHEMERIS_TYPE": 0, "CLASSIFICATION_TYPE": "U", "NORAD_CAT_ID": 39741, "ELEMENT_SET_NO": 999, "REV_AT_EPOCH": 7906, "BSTAR": 0, "MEAN_MOTION_DOT": -8.1e-07, "MEAN_MOTION_DDOT": 0, "line1": "1 39741U 14026A   25061.31359882 -.00000081  00000+0  00000+0 0  9998", "line2": "2 39741  56.6735 349.8616 0036166 319.1557  40.5924  2.00549972 79062"}, {"OBJECT_NAME": "COSMOS 2500 (755)", "OBJECT_ID": "2014-032A", "EPOCH": "2025-03-01T00:44:57.510816", "MEAN_MOTION": 2.13105881, "ECCENTRICITY": 0.000497, "INCLINATION": 65.4943, "RA_OF_ASC_NODE": 329.759, "ARG_OF_PERICENTER": 211.4783, "MEAN_ANOMALY": 148.5415, "EPHEMERIS_TYPE": 0, "CLASSIFICATION_TYPE": "U", "NORAD_CAT_ID": 40001, "ELEMENT_SET_NO": 999, "REV_AT_EPOCH": 8337, "BSTAR": 0, "MEAN_MOTION_DOT": -4.3e-07, "MEAN_MOTION_DDOT": 0, "line1": "1 40001U 14032A   25060.03122119 -.00000043  00000+0  00000+0 0  9993", "line2": "2 40001  65.4943 329.7590 0004970 211.4783 148.5415  2.13105881 83377"}, {"OBJECT_NAME": "GPS BIIF-7  (PRN 09)", "OBJECT_ID": "2014-045A", "EPOCH": "2025-03-02T09:27:23.131872", "MEAN_MOTION": 2.00553762, "ECCENTRICITY": 0.0028345, "INCLINATION": 55.0567, "RA_OF_ASC_NODE": 107.2884, "ARG_OF_PERICENTER": 118.4937, "MEAN_ANOMALY": 241.873, "EPHEMERIS_TYPE": 0, "CLASSIFICATION_TYPE": "U", "NORAD_CAT_ID": 40105, "ELEMENT_SET_NO": 999, "REV_AT_EPOCH": 7750, "BSTAR": 0, "MEAN_MOTION_DOT": 2.5e-07, "MEAN_MOTION_DDOT": 0, "line1": "1 40105U 14045A   25061.39401773  .00000025  00000+0  00000+0 0  9997", "line2": "2 40105  55.0567 107.2884 0028345 118.4937 241.8730  2.00553762 77509"}, {"OBJECT_NAME": "GSAT0201 (GALILEO 5)", "OBJECT_ID": "2014-050A", "EPOCH": "2025-02-28T15:31:39.614592", "MEAN_MOTION": 1.85519637, "ECCENTRICITY": 0.1621143, "INCLINATION": 49.3877, "RA_OF_ASC_NODE": 292.7209, "ARG_OF_PERICENTER": 161.1013, "MEAN_ANOMALY": 205.7121, "EPHEMERIS_TYPE": 0, "CLASSIFICATION_TYPE": "U", "NORAD_CAT_ID": 40128, "ELEMENT_SET_NO": 999, "REV_AT_EPOCH": 6953, "BSTAR": 0, "MEAN_MOTION_DOT": -1.3e-07, "MEAN_MOTION_DDOT": 0, "line1": "1 40128U 14050A   25059.64698628 -.00000013  00000+0  00000+0 0  9998", "line2": "2 40128  49.3877 292.7209 1621143 161.1013 205.7121  1.85519637 69533"}, {"OBJECT_NAME": "GSAT0202 (GALILEO 6)", "OBJECT_ID": "2014-050B", "EPOCH": "2025-03-01T10:38:19.158720", "MEAN_MOTION": 1.85520347, "ECCENTRICITY": 0.162089, "INCLINATION": 49.4029, "RA_OF_ASC_NODE": 291.7688, "ARG_OF_PERICENTER": 161.9134, "MEAN_ANOMALY": 204.6187, "EPHEMERIS_TYPE": 0, "CLASSIFICATION_TYPE": "U", "NORAD_CAT_ID": 40129, "ELEMENT_SET_NO": 999, "REV_AT_EPOCH": 7171, "BSTAR": 0, "MEAN_MOTION_DOT": -1.7e-07, "MEAN_MOTION_DDOT": 0, "line1": "1 40129U 14050B   25060.44327730 -.00000017  00000+0  00000+0 0  9996", "line2": "2 40129  49.4029 291.7688 1620890 161.9134 204.6187  1.85520347 71717"}, {"OBJECT_NAME": "IRNSS-1C", "OBJECT_ID": "2014-061A", "EPOCH": "2025-03-01T16:50:56.112576", "MEAN_MOTION": 1.00274146, "ECCENTRICITY": 0.0019243, "INCLINATION": 5.3139, "RA_OF_ASC_NODE": 98.6673, "ARG_OF_PERICENTER": 1.2918, "MEAN_ANOMALY": 35.4999, "EPHEMERIS_TYPE": 0, "CLASSIFICATION_TYPE": "U", "NORAD_CAT_ID": 40269, "ELEMENT_SET_NO": 999, "REV_AT_EPOCH": 3795, "BSTAR": 0, "MEAN_MOTION_DOT": -1.63e-06, "MEAN_MOTION_DDOT": 0, "line1": "1 40269U 14061A   25060.70203834 -.00000163  00000+0  00000+0 0  9992", "line2": "2 40269   5.3139  98.6673 0019243   1.2918  35.4999  1.00274146 37951"}, {"OBJECT_NAME": "GPS BIIF-8  (PRN 03)", "OBJECT_ID": "2014-068A", "EPOCH": "2025-03-01T06:29:04.533504", "MEAN_MOTION": 2.00576136, "ECCENTRICITY": 0.0055935, "INCLINATION": 56.6387, "RA_OF_ASC_NODE": 49.2334, "ARG_OF_PERICENTER": 63.6074, "MEAN_ANOMALY": 296.9748, "EPHEMERIS_TYPE": 0, "CLASSIFICATION_TYPE": "U", "NORAD_CAT_ID": 40294, "ELEMENT_SET_NO": 999, "REV_AT_EPOCH": 7572, "BSTAR": 0, "MEAN_MOTION_DOT": -2.4e-07, "MEAN_MOTION_DDOT": 0, "line1": "1 40294U 14068A   25060.27019136 -.00000024  00000+0  00000+0 0  9995", "line2": "2 40294  56.6387  49.2334 0055935  63.6074 296.9748  2.00576136 75720"}, {"OBJECT_NAME": "COSMOS 2501 (702K)", "OBJECT_ID": "2014-075A", "EPOCH": "2025-03-01T06:53:35.929824", "MEAN_MOTION": 2.13101241, "ECCENTRICITY": 0.0019662, "INCLINATION": 63.6184, "RA_OF_ASC_NODE": 206.7481, "ARG_OF_PERICENTER": 204.8263, "MEAN_ANOMALY": 155.0419, "EPHEMERIS_TYPE": 0, "CLASSIFICATION_TYPE": "U", "NORAD_CAT_ID": 40315, "ELEMENT_SET_NO": 999, "REV_AT_EPOCH": 7977, "BSTAR": 0, "MEAN_MOTION_DOT": 4.7e-07, "MEAN_MOTION_DDOT": 0, "line1": "1 40315U 14075A   25060.28722141  .00000047  00000+0  00000+0 0  9999", "line2": "2 40315  63.6184 206.7481 0019662 204.8263 155.0419  2.13101241 79770"}, {"OBJECT_NAME": "GPS BIIF-9  (PRN 26)", "OBJECT_ID": "2015-013A", "EPOCH": "2025-02-28T21:53:09.631392", "MEAN_MOTION": 2.00549732, "ECCENTRICITY": 0.0097595, "INCLINATION": 53.2666, "RA_OF_ASC_NODE": 223.7598, "ARG_OF_PERICENTER": 34.4551, "MEAN_ANOMALY": 326.1334, "EPHEMERIS_TYPE": 0, "CLASSIFICATION_TYPE": "U", "NORAD_CAT_ID": 40534, "ELEMENT_SET_NO": 999, "REV_AT_EPOCH": 7233, "BSTAR": 0, "MEAN_MOTION_DOT": 4.2e-07, "MEAN_MOTION_DDOT": 0, "line1": "1 40534U 15013A   25059.91191703  .00000042  00000+0  00000+0 0  9992", "line2": "2 40534  53.2666 223.7598 0097595  34.4551 326.1334  2.00549732 72338"}, {"OBJECT_NAME": "GSAT0203 (GALILEO 7)", "OBJECT_ID": "2015-017A", "EPOCH": "2025-03-02T00:18:22.686048", "MEAN_MOTION": 1.70475386, "ECCENTRICITY": 0.0004661, "INCLINATION": 56.9059, "RA_OF_ASC_NODE": 354.4574, "ARG_OF_PERICENTER": 291.9904, "MEAN_ANOMALY": 67.9666, "EPHEMERIS_TYPE": 0, "CLASSIFICATION_TYPE": "U", "NORAD_CAT_ID": 40544, "ELEMENT_SET_NO": 999, "REV_AT_EPOCH": 6181, "BSTAR": 0, "MEAN_MOTION_DOT": -8.7e-07, "MEAN_MOTION_DDOT": 0, "line1": "1 40544U 15017A   25061.01276257 -.00000087  00000+0  00000+0 0  9999", "line2": "2 40544  56.9059 354.4574 0004661 291.9904  67.9666  1.70475386 61813"}]}